STARLINK-3618           
1 51998U 22025AU  23127.04739692  .00000903  00000+0  74774-4 0  9992
2 51998  53.2175 357.2747 0000984  89.1800 270.9305 15.08851497 65789
STARLINK-3667           
1 51999U 22025AV  23126.94067998  .00000870  00000+0  72747-4 0  9995
2 51999  53.2172 357.7480 0001113 100.5670 259.5447 15.08844255 65766
STARLINK-3653           
1 52000U 22025AW  23126.90019363  .00001667  00000+0  12281-3 0  9999
2 52000  53.2159 357.8492 0001322  89.8600 270.2543 15.08842741 65780
STARLINK-3659           
1 52001U 22025AX  23126.91124251  .00001417  00000+0  10707-3 0  9998
2 52001  53.2169 357.8854 0001038  81.4921 278.6188 15.08846615 65783
STARLINK-3668           
1 52002U 22025AY  23126.90851522  .00002002  00000+0  14379-3 0  9996
2 52002  53.2178 357.9097 0001195  80.8946 279.2182 15.08855016 65762
STARLINK-3654           
1 52003U 22025AZ  23127.03636006  .00003487  00000+0  23701-3 0  9997
2 52003  53.2170 357.3247 0001021  91.3304 268.7805 15.08848920 65782
S4 CROSSOVER & ASTRA R/B
1 52008U 22026A   23126.97399020  .00049684  00000+0  13317-2 0  9997
2 52008  97.4863 133.4618 0030300 238.8740 120.9531 15.37358891 63615
SPACEBEE-121            
1 52009U 22026B   23126.97733681  .00041135  00000+0  14484-2 0  9992
2 52009  97.5056 130.1866 0019193 217.4453 142.5450 15.29017863 63332
SPACEBEE-114            
1 52010U 22026C   23126.98016242  .00042383  00000+0  14662-2 0  9996
2 52010  97.5081 130.4583 0018343 218.1682 141.8261 15.29602416 63357
SPACEBEE-126            
1 52011U 22026D   23126.98599714  .00043389  00000+0  15001-2 0  9992
2 52011  97.5067 130.3743 0018783 215.3028 144.6969 15.29608424 63340
SPACEBEE-118            
1 52012U 22026E   23126.55803133  .00046845  00000+0  15989-2 0  9994
2 52012  97.5065 130.2132 0017676 221.1666 138.8242 15.30027218 63306
SPACEBEE-120            
1 52013U 22026F   23126.94313302  .00044075  00000+0  15172-2 0  9999
2 52013  97.5062 130.4224 0019637 213.6082 146.3914 15.29730028 63347
SPACEBEE-122            
1 52014U 22026G   23126.98383694  .00043455  00000+0  14829-2 0  9994
2 52014  97.5064 130.5245 0018442 215.3243 144.6776 15.30038394 63352
SPACEBEE-119            
1 52015U 22026H   23126.96833295  .00042062  00000+0  14752-2 0  9998
2 52015  97.5074 130.2940 0019283 217.7672 142.2216 15.29140116 63334
SPACEBEE-115            
1 52016U 22026J   23126.98124407  .00040364  00000+0  14156-2 0  9990
2 52016  97.5078 130.4516 0018991 216.6842 143.3098 15.29155906 63346
ORESAT0                 
1 52017U 22026K   23127.01099577  .00022641  00000+0  94348-3 0  9995
2 52017  97.5100 129.3220 0021432 223.5614 136.3931 15.23509110 63274
SPACEBEENZ-14           
1 52018U 22026L   23127.00452899  .00060627  00000+0  17750-2 0  9992
2 52018  97.5037 131.4131 0017143 208.6738 151.3564 15.34873506 63414
SPACEBEENZ-11           
1 52019U 22026M   23126.97494899  .00070380  00000+0  19725-2 0  9995
2 52019  97.5030 131.5958 0016649 207.3634 152.6735 15.36206718 63384
SPACEBEE-127            
1 52020U 22026N   23126.95977011  .00039218  00000+0  13955-2 0  9991
2 52020  97.5066 130.2633 0019262 217.3391 142.6511 15.28683957 63281
SPACEBEE-125            
1 52021U 22026P   23126.98155880  .00043785  00000+0  14916-2 0  9999
2 52021  97.5063 130.6541 0020029 215.8975 144.0921 15.30062503 63232
SPACEBEE-117            
1 52022U 22026Q   23127.00138027  .00039923  00000+0  14088-2 0  9997
2 52022  97.5080 130.4242 0019193 216.8491 143.1430 15.28953101 63215
SPACEBEE-116            
1 52023U 22026R   23126.96787976  .00041541  00000+0  14521-2 0  9996
2 52023  97.5083 130.4740 0018792 216.8843 143.1106 15.29260195 63212
SPACEBEE-113            
1 52024U 22026S   23126.99147660  .00042594  00000+0  14631-2 0  9991
2 52024  97.5071 130.5677 0020375 213.3262 146.6697 15.29793105 63223
SPACEBEE-112            
1 52025U 22026T   23126.96260459  .00051250  00000+0  16477-2 0  9990
2 52025  97.5059 130.8993 0018053 213.4275 146.5828 15.31927748 63241
SPACEBEENZ-13           
1 52026U 22026U   23126.97960001  .00064358  00000+0  18656-2 0  9996
2 52026  97.5031 131.4374 0017209 208.9769 151.0521 15.35167648 63195
SPACEBEE-123            
1 52027U 22026V   23126.42996483  .00038037  00000+0  13382-2 0  9996
2 52027  97.5061 129.7175 0019031 219.0206 140.9662 15.29065734 63034
SPACEBEENZ-12           
1 52028U 22026W   23126.97503474  .00055948  00000+0  17158-2 0  9996
2 52028  97.5099 131.2625 0017504 211.7040 148.3150 15.33422125 63267
SPACEBEE-124            
1 52029U 22026X   23126.96589992  .00041266  00000+0  14509-2 0  9990
2 52029  97.5058 130.2208 0019127 217.2516 142.7398 15.29065753 61839
YAOGAN-34 02            
1 52084U 22027A   23126.56041440 -.00000061  00000+0  48427-4 0  9996
2 52084  63.3975 243.2943 0033469 349.1508  10.8778 13.45249575 55877
STARLINK-3537           
1 52088U 22029A   23126.81329700  .00001868  00000+0  13830-3 0  9992
2 52088  53.2178 318.0457 0001059  80.2083 279.9029 15.08026938 65512
STARLINK-3722           
1 52089U 22029B   23127.10718945  .00002151  00000+0  15313-3 0  9993
2 52089  53.2173  67.0068 0001132  96.0197 264.0924 15.08858605 64017
STARLINK-3712           
1 52090U 22029C   23127.09616115  .00000550  00000+0  52657-4 0  9993
2 52090  53.2178  67.0577 0001245  94.4254 265.6880 15.08845303 64019
STARLINK-3713           
1 52091U 22029D   23127.10351096  .00002140  00000+0  15243-3 0  9996
2 52091  53.2175  67.0220 0001305  99.3773 260.7367 15.08857439 64018
STARLINK-3716           
1 52092U 22029E   23127.09983518  .00004112  00000+0  27614-3 0  9991
2 52092  53.2160  67.0411 0001182  94.4824 265.6303 15.08859461 64012
STARLINK-3673           
1 52093U 22029F   23126.22864380  .00001256  00000+0  96981-4 0  9991
2 52093  53.2171  70.9596 0001525 106.8568 253.2591 15.08842190 63883
STARLINK-3714           
1 52094U 22029G   23127.09248246  .00000921  00000+0  75933-4 0  9997
2 52094  53.2170  67.0711 0001177  96.5177 263.5949 15.08842991 64019
STARLINK-3701           
1 52095U 22029H   23127.08143657  .00000874  00000+0  72993-4 0  9997
2 52095  53.2176  67.1219 0001209  87.4957 272.6174 15.08849799 64015
STARLINK-3717           
1 52096U 22029J   23127.06027324  .00001845  00000+0  13390-3 0  9992
2 52096  53.2171  57.2175 0000784  72.9979 287.1099 15.08849889 64132
STARLINK-3665           
1 52098U 22029L   23127.08511793  .00000268  00000+0  34927-4 0  9992
2 52098  53.2167  67.1032 0001089 121.7405 238.3694 15.08843690 64017
STARLINK-3702           
1 52100U 22029N   23127.07775621  .00001793  00000+0  13069-3 0  9994
2 52100  53.2169  67.1386 0001272 116.5704 243.5418 15.08850350 64016
STARLINK-3703           
1 52101U 22029P   23126.27647748  .00000749  00000+0  65132-4 0  9993
2 52101  53.2167  70.7429 0001091  96.8051 263.3066 15.08843785 63884
STARLINK-3709           
1 52102U 22029Q   23127.07962386  .00001520  00000+0  11354-3 0  9995
2 52102  53.2175  57.1310 0001307  89.6140 270.5002 15.08855449 64141
STARLINK-3705           
1 52103U 22029R   23127.05291353  .00001817  00000+0  13218-3 0  9993
2 52103  53.2184  57.2541 0000960  81.5624 278.5477 15.08852314 64132
STARLINK-3706           
1 52105U 22029T   23127.11276458 -.00001226  00000+0 -58971-4 0  9993
2 52105  53.2170  56.9844 0001200 107.5368 252.5755 15.08837507 64142
STARLINK-3670           
1 52106U 22029U   23127.06672044  .00001246  00000+0  96321-4 0  9990
2 52106  53.2170  67.1868 0001084  95.6438 264.4677 15.08843120 64006
STARLINK-3658           
1 52107U 22029V   23127.10811067  .00002593  00000+0  18084-3 0  9991
2 52107  53.2173  57.0031 0000864 102.8414 257.2674 15.08854295 64147
STARLINK-3698           
1 52108U 22029W   23126.25436018  .00002263  00000+0  16021-3 0  9999
2 52108  53.2168  60.8340 0001141  99.2941 260.8180 15.08844274 64014
STARLINK-3687           
1 52110U 22029Y   23126.11820132  .00000509  00000+0  50054-4 0  9997
2 52110  53.2170  61.4480 0001041 103.0013 257.1095 15.08842058 63993
STARLINK-3708           
1 52111U 22029Z   23126.23595937  .00001087  00000+0  86371-4 0  9996
2 52111  53.2168  60.9169 0001146 104.9160 255.1959 15.08845954 64017
STARLINK-3734           
1 52112U 22029AA  23127.10443783  .00004017  00000+0  27023-3 0  9999
2 52112  53.2167  57.0209 0000874 103.4710 256.6380 15.08850313 64144
STARLINK-3736           
1 52113U 22029AB  23126.22859756  .00001995  00000+0  14337-3 0  9999
2 52113  53.2172  60.9498 0001118 101.4189 258.6929 15.08847730 64010
STARLINK-3737           
1 52114U 22029AC  23127.10075077  .00002635  00000+0  18348-3 0  9992
2 52114  53.2169  57.0350 0000925  83.2371 276.8727 15.08854562 64150
STARLINK-3685           
1 52115U 22029AD  23127.08235035  .00002434  00000+0  17089-3 0  9990
2 52115  53.2182  57.1163 0000995  89.6961 270.4145 15.08854653 64145
STARLINK-3735           
1 52116U 22029AE  23127.09339637  .00001662  00000+0  12243-3 0  9994
2 52116  53.2157  57.0697 0001081  88.6107 271.5009 15.08854892 64143
STARLINK-3738           
1 52117U 22029AF  23127.07501680 -.00000887  00000+0 -37669-4 0  9992
2 52117  53.2172  57.1515 0001114  96.9802 263.1317 15.08836063 64152
STARLINK-3743           
1 52118U 22029AG  23127.08603173  .00001957  00000+0  14098-3 0  9991
2 52118  53.2167  57.1014 0001246  92.4939 267.6196 15.08853409 64145
STARLINK-3558           
1 52119U 22029AH  23126.14028507  .00001081  00000+0  85999-4 0  9997
2 52119  53.2178  61.3478 0001093  86.2000 273.9118 15.08840252 64000
STARLINK-3534           
1 52120U 22029AJ  23127.07867298  .00005821  00000+0  38325-3 0  9996
2 52120  53.2172  57.1335 0001168  93.5059 266.6067 15.08865061 64152
STARLINK-3678           
1 52121U 22029AK  23127.05015450  .00005289  00000+0  34995-3 0  9997
2 52121  53.2177  47.2609 0001280  98.9265 261.1872 15.08861061 64278
